[{"OBJECT_NAME":"STARLINK-4360","OBJECT_ID":"2022-099T","EPOCH":"2026-03-09T21:25:07.915872","MEAN_MOTION":15.01254837,"ECCENTRICITY":2.719e-5,"INCLINATION":97.6052,"RA_OF_ASC_NODE":190.4373,"ARG_OF_PERICENTER":3.0306,"MEAN_ANOMALY":357.0919,"EPHEMERIS_TYPE":0,"CLASSIFICATION_TYPE":"U","NORAD_CAT_ID":53482,"ELEMENT_SET_NO":999,"REV_AT_EPOCH":19601,"BSTAR":7.3224794e-5,"MEAN_MOTION_DOT":8.82e-6,"MEAN_MOTION_DDOT":0},{"OBJECT_NAME":"DELTA 1 DEB","OBJECT_ID":"1977-065DL","EPOCH":"2026-03-09T05:03:29.284704","MEAN_MOTION":13.58952222,"ECCENTRICITY":0.06330817,"INCLINATION":28.7836,"RA_OF_ASC_NODE":97.9522,"ARG_OF_PERICENTER":253.7759,"MEAN_ANOMALY":169.3549,"EPHEMERIS_TYPE":0,"CLASSIFICATION_TYPE":"U","NORAD_CAT_ID":10314,"ELEMENT_SET_NO":999,"REV_AT_EPOCH":34572,"BSTAR":0.0019577614,"MEAN_MOTION_DOT":5.734e-5,"MEAN_MOTION_DDOT":0}]
